CCSDS_OMM_VERS = 2.0
CREATION_DATE  = 
ORIGINATOR     = 

OBJECT_NAME    = TITAN 4B R/B
OBJECT_ID      = 2000-047B
CENTER_NAME    = EARTH
REF_FRAME      = TEME
TIME_SYSTEM    = UTC
MEAN_ELEMENT_THEORY = SGP/SGP4

EPOCH          = 2025-11-04T19:38:50.676576
MEAN_MOTION    = 15.08357138
ECCENTRICITY   = .0042618
INCLINATION    = 67.9921
RA_OF_ASC_NODE = 31.3243
ARG_OF_PERICENTER = 188.3777
MEAN_ANOMALY   = 171.6666

EPHEMERIS_TYPE = 0
CLASSIFICATION_TYPE = U
NORAD_CAT_ID   = 26474
ELEMENT_SET_NO = 999
REV_AT_EPOCH   = 37407
BSTAR          = .28771E-3
MEAN_MOTION_DOT = .4441E-4
MEAN_MOTION_DDOT = 0

CCSDS_OMM_VERS = 2.0
CREATION_DATE  = 
ORIGINATOR     = 

OBJECT_NAME    = ENVISAT
OBJECT_ID      = 2002-009A
CENTER_NAME    = EARTH
REF_FRAME      = TEME
TIME_SYSTEM    = UTC
MEAN_ELEMENT_THEORY = SGP/SGP4

EPOCH          = 2025-11-04T20:43:32.080800
MEAN_MOTION    = 14.38977205
ECCENTRICITY   = .0001341
INCLINATION    = 98.3536
RA_OF_ASC_NODE = 260.5767
ARG_OF_PERICENTER = 84.1333
MEAN_ANOMALY   = 300.2576

EPHEMERIS_TYPE = 0
CLASSIFICATION_TYPE = U
NORAD_CAT_ID   = 27386
ELEMENT_SET_NO = 999
REV_AT_EPOCH   = 24122
BSTAR          = .62906E-4
MEAN_MOTION_DOT = .151E-5
MEAN_MOTION_DDOT = 0

CCSDS_OMM_VERS = 2.0
CREATION_DATE  = 
ORIGINATOR     = 

OBJECT_NAME    = IDEFIX & ARIANE 42P R/B
OBJECT_ID      = 2002-021B
CENTER_NAME    = EARTH
REF_FRAME      = TEME
TIME_SYSTEM    = UTC
MEAN_ELEMENT_THEORY = SGP/SGP4

EPOCH          = 2025-11-04T18:05:45.479040
MEAN_MOTION    = 14.30906716
ECCENTRICITY   = .00114
INCLINATION    = 98.5726
RA_OF_ASC_NODE = 243.9499
ARG_OF_PERICENTER = 190.1585
MEAN_ANOMALY   = 169.9369

EPHEMERIS_TYPE = 0
CLASSIFICATION_TYPE = U
NORAD_CAT_ID   = 27422
ELEMENT_SET_NO = 999
REV_AT_EPOCH   = 22615
BSTAR          = .14556E-3
MEAN_MOTION_DOT = .339E-5
MEAN_MOTION_DDOT = 0

CCSDS_OMM_VERS = 2.0
CREATION_DATE  = 
ORIGINATOR     = 

OBJECT_NAME    = CZ-4B R/B
OBJECT_ID      = 2002-024C
CENTER_NAME    = EARTH
REF_FRAME      = TEME
TIME_SYSTEM    = UTC
MEAN_ELEMENT_THEORY = SGP/SGP4

EPOCH          = 2025-11-04T14:36:05.550912
MEAN_MOTION    = 14.14515825
ECCENTRICITY   = .0050455
INCLINATION    = 98.9060
RA_OF_ASC_NODE = 357.5023
ARG_OF_PERICENTER = 19.3782
MEAN_ANOMALY   = 133.7811

EPHEMERIS_TYPE = 0
CLASSIFICATION_TYPE = U
NORAD_CAT_ID   = 27432
ELEMENT_SET_NO = 999
REV_AT_EPOCH   = 21155
BSTAR          = .54372E-4
MEAN_MOTION_DOT = .61E-6
MEAN_MOTION_DDOT = 0

CCSDS_OMM_VERS = 2.0
CREATION_DATE  = 
ORIGINATOR     = 

OBJECT_NAME    = MIDORI II (ADEOS-II)
OBJECT_ID      = 2002-056A
CENTER_NAME    = EARTH
REF_FRAME      = TEME
TIME_SYSTEM    = UTC
MEAN_ELEMENT_THEORY = SGP/SGP4

EPOCH          = 2025-11-04T20:09:54.595008
MEAN_MOTION    = 14.29164826
ECCENTRICITY   = .0001673
INCLINATION    = 98.7573
RA_OF_ASC_NODE = 261.6103
ARG_OF_PERICENTER = 45.3355
MEAN_ANOMALY   = 314.7963

EPHEMERIS_TYPE = 0
CLASSIFICATION_TYPE = U
NORAD_CAT_ID   = 27597
ELEMENT_SET_NO = 999
REV_AT_EPOCH   = 19246
BSTAR          = .14743E-3
MEAN_MOTION_DOT = .329E-5
MEAN_MOTION_DDOT = 0

CCSDS_OMM_VERS = 2.0
CREATION_DATE  = 
ORIGINATOR     = 

OBJECT_NAME    = H-2A R/B
OBJECT_ID      = 2002-056E
CENTER_NAME    = EARTH
REF_FRAME      = TEME
TIME_SYSTEM    = UTC
MEAN_ELEMENT_THEORY = SGP/SGP4

EPOCH          = 2025-11-04T20:20:13.714944
MEAN_MOTION    = 14.33634218
ECCENTRICITY   = .0070358
INCLINATION    = 98.3005
RA_OF_ASC_NODE = 269.1253
ARG_OF_PERICENTER = 172.6476
MEAN_ANOMALY   = 217.6682

EPHEMERIS_TYPE = 0
CLASSIFICATION_TYPE = U
NORAD_CAT_ID   = 27601
ELEMENT_SET_NO = 999
REV_AT_EPOCH   = 19622
BSTAR          = .12446E-3
MEAN_MOTION_DOT = .313E-5
MEAN_MOTION_DDOT = 0

CCSDS_OMM_VERS = 2.0
CREATION_DATE  = 
ORIGINATOR     = 

OBJECT_NAME    = CZ-4B R/B
OBJECT_ID      = 2004-035C
CENTER_NAME    = EARTH
REF_FRAME      = TEME
TIME_SYSTEM    = UTC
MEAN_ELEMENT_THEORY = SGP/SGP4

EPOCH          = 2025-11-04T19:32:54.001824
MEAN_MOTION    = 15.26476678
ECCENTRICITY   = .003545
INCLINATION    = 97.3661
RA_OF_ASC_NODE = 339.6789
ARG_OF_PERICENTER = 53.1144
MEAN_ANOMALY   = 307.3335

EPHEMERIS_TYPE = 0
CLASSIFICATION_TYPE = U
NORAD_CAT_ID   = 28415
ELEMENT_SET_NO = 999
REV_AT_EPOCH   = 16084
BSTAR          = .30409E-3
MEAN_MOTION_DOT = .8004E-4
MEAN_MOTION_DDOT = 0

CCSDS_OMM_VERS = 2.0
CREATION_DATE  = 
ORIGINATOR     = 

OBJECT_NAME    = CZ-2C R/B
OBJECT_ID      = 2004-046B
CENTER_NAME    = EARTH
REF_FRAME      = TEME
TIME_SYSTEM    = UTC
MEAN_ELEMENT_THEORY = SGP/SGP4

EPOCH          = 2025-11-04T17:49:43.972320
MEAN_MOTION    = 14.26914780
ECCENTRICITY   = .0139817
INCLINATION    = 98.1951
RA_OF_ASC_NODE = 226.4899
ARG_OF_PERICENTER = 163.8751
MEAN_ANOMALY   = 196.6948

EPHEMERIS_TYPE = 0
CLASSIFICATION_TYPE = U
NORAD_CAT_ID   = 28480
ELEMENT_SET_NO = 999
REV_AT_EPOCH   = 9068
BSTAR          = .79818E-4
MEAN_MOTION_DOT = .175E-5
MEAN_MOTION_DDOT = 0

